[{"OBJECT_NAME":"OBJECT D","OBJECT_ID":"2024-174D","EPOCH":"2026-03-10T00:15:10.483200","MEAN_MOTION":15.28039787,"ECCENTRICITY":0.00110644,"INCLINATION":97.4441,"RA_OF_ASC_NODE":80.4677,"ARG_OF_PERICENTER":212.9968,"MEAN_ANOMALY":147.0582,"EPHEMERIS_TYPE":0,"CLASSIFICATION_TYPE":"U","NORAD_CAT_ID":61241,"ELEMENT_SET_NO":999,"REV_AT_EPOCH":8076,"BSTAR":0.00036340099,"MEAN_MOTION_DOT":9.884e-5,"MEAN_MOTION_DDOT":0},{"OBJECT_NAME":"STARLINK-32683","OBJECT_ID":"2024-251P","EPOCH":"2026-03-09T22:39:11.292480","MEAN_MOTION":15.30228132,"ECCENTRICITY":0.00015389,"INCLINATION":53.1608,"RA_OF_ASC_NODE":334.3833,"ARG_OF_PERICENTER":147.6333,"MEAN_ANOMALY":212.4762,"EPHEMERIS_TYPE":0,"CLASSIFICATION_TYPE":"U","NORAD_CAT_ID":62445,"ELEMENT_SET_NO":999,"REV_AT_EPOCH":6798,"BSTAR":0.0010438519,"MEAN_MOTION_DOT":0.00030712,"MEAN_MOTION_DDOT":0}]
